{"type":"FeatureCollection","_comment":"AQHI monitoring stations from CSDI (official HK government open data). Generated by scripts/build_aqhi.py - do not hand-edit. Live AQHI values are merged by the aqhi_city_dashboard adapter, never baked here.","features":[{"type":"Feature","geometry":{"type":"Point","coordinates":[114.11453490968562,22.3717419058893]},"properties":{"Name":"荃灣空氣質素監測站","Name_tc":"荃灣空氣質素監測站","Name_en":"Tsuen Wan Air Quality Monitoring Station","Type_tc":"一般監測站","Type_en":"GENERAL MONITORING STATION","Address_tc":"新界荃灣大河道60號雅麗珊社區中心","Address_en":"Princess Alexandra Community Centre, 60 Tai Ho Road, Tsuen Wan, New Territories"}},{"type":"Feature","geometry":{"type":"Point","coordinates":[114.18509009395775,22.280132960589683]},"properties":{"Name":"銅鑼灣空氣質素監測站","Name_tc":"銅鑼灣空氣質素監測站","Name_en":"Causeway Bay Air Quality Monitoring Station","Type_tc":"路邊監測站","Type_en":"ROADSIDE MONITORING STATION","Address_tc":"香港銅鑼灣怡和街1號","Address_en":"1 Yee Wo Street, Causeway Bay, Hong Kong"}},{"type":"Feature","geometry":{"type":"Point","coordinates":[114.15812743135297,22.28181450160065]},"properties":{"Name":"中環空氣質素監測站","Name_tc":"中環空氣質素監測站","Name_en":"Central Air Quality Monitoring Station","Type_tc":"路邊監測站","Type_en":"ROADSIDE MONITORING STATION","Address_tc":"香港中環遮打道與德輔道中交界","Address_en":"Junction of Chater Road and Des Voeux Road Central, Central, Hong Kong"}},{"type":"Feature","geometry":{"type":"Point","coordinates":[114.14442070958327,22.284890887207478]},"properties":{"Name":"中西區空氣質素監測站","Name_tc":"中西區空氣質素監測站","Name_en":"Central/Western Air Quality Monitoring Station","Type_tc":"一般監測站","Type_en":"GENERAL MONITORING STATION","Address_tc":"香港中西區高街2號西營盤社區綜合大樓","Address_en":"Sai Ying Pun Community Complex, 2 High Street, Central & Western, Hong Kong"}},{"type":"Feature","geometry":{"type":"Point","coordinates":[114.16827176330283,22.322611149192284]},"properties":{"Name":"旺角空氣質素監測站","Name_tc":"旺角空氣質素監測站","Name_en":"Mong Kok Air Quality Monitoring Station","Type_tc":"路邊監測站","Type_en":"ROADSIDE MONITORING STATION","Address_tc":"九龍旺角彌敦道與荔枝角道交界","Address_en":"Junction of Nathan Road and Lai Chi Kok Road, Mong Kok, Kowloon"}},{"type":"Feature","geometry":{"type":"Point","coordinates":[114.1645702224761,22.45095987737678]},"properties":{"Name":"大埔空氣質素監測站","Name_tc":"大埔空氣質素監測站","Name_en":"Tai Po Air Quality Monitoring Station","Type_tc":"一般監測站","Type_en":"GENERAL MONITORING STATION","Address_tc":"新界大埔汀角路1號大埔政府合署","Address_en":"Tai Po Government Offices Building, 1 Ting Kok Road, Tai Po, New Territories"}},{"type":"Feature","geometry":{"type":"Point","coordinates":[114.15910912818445,22.33022590000336]},"properties":{"Name":"深水埗空氣質素監測站","Name_tc":"深水埗空氣質素監測站","Name_en":"Sham Shui Po Air Quality Monitoring Station","Type_tc":"一般監測站","Type_en":"GENERAL MONITORING STATION","Address_tc":"九龍深水埗欽州街37號A深水埗警署","Address_en":"Sham Shui Po Police Station, 37A Yen Chow Street, Sham Shui Po, Kowloon"}},{"type":"Feature","geometry":{"type":"Point","coordinates":[114.18453161033281,22.376280719690342]},"properties":{"Name":"沙田空氣質素監測站","Name_tc":"沙田空氣質素監測站","Name_en":"Sha Tin Air Quality Monitoring Station","Type_tc":"一般監測站","Type_en":"GENERAL MONITORING STATION","Address_tc":"新界沙田文禮路11-17號沙田官立中學","Address_en":"Sha Tin Government Secondary School, 11-17 Man Lai Road, Sha Tin, New Territories"}},{"type":"Feature","geometry":{"type":"Point","coordinates":[114.02264887963739,22.445155078643626]},"properties":{"Name":"元朗空氣質素監測站","Name_tc":"元朗空氣質素監測站","Name_en":"Yuen Long Air Quality Monitoring Station","Type_tc":"一般監測站","Type_en":"GENERAL MONITORING STATION","Address_tc":"新界元朗青山公路269號元朗民政事務處大廈","Address_en":"Yuen Long District Office Building, 269 Castle Peak Road, Yuen Long, New Territories"}},{"type":"Feature","geometry":{"type":"Point","coordinates":[114.12960136293972,22.357103980117888]},"properties":{"Name":"葵涌空氣質素監測站","Name_tc":"葵涌空氣質素監測站","Name_en":"Kwai Chung Air Quality Monitoring Station","Type_tc":"一般監測站","Type_en":"GENERAL MONITORING STATION","Address_tc":"新界葵涌葵涌道999號葵涌警署","Address_en":"Kwai Chung Police Station, 999 Kwai Chung Road, Kwai Chung, New Territories"}},{"type":"Feature","geometry":{"type":"Point","coordinates":[114.36071850010246,22.471316687516556]},"properties":{"Name":"塔門空氣質素監測站","Name_tc":"塔門空氣質素監測站","Name_en":"Tap Mun Air Quality Monitoring Station","Type_tc":"一般監測站","Type_en":"GENERAL MONITORING STATION","Address_tc":"塔門警崗","Address_en":"Tap Mun Police Post"}},{"type":"Feature","geometry":{"type":"Point","coordinates":[114.21937155979792,22.28288555297906]},"properties":{"Name":"東區空氣質素監測站","Name_tc":"東區空氣質素監測站","Name_en":"Eastern Air Quality Monitoring Station","Type_tc":"一般監測站","Type_en":"GENERAL MONITORING STATION","Address_tc":"香港東區惠亨街20號西灣河消防局","Address_en":"Sai Wan Ho Fire Station, 20 Wai Hang Street, Eastern, Hong Kong"}},{"type":"Feature","geometry":{"type":"Point","coordinates":[113.94365902183513,22.28888886625089]},"properties":{"Name":"東涌空氣質素監測站","Name_tc":"東涌空氣質素監測站","Name_en":"Tung Chung Air Quality Monitoring Station","Type_tc":"一般監測站","Type_en":"GENERAL MONITORING STATION","Address_tc":"新界東涌富東街6號東涌健康院","Address_en":"Tung Chung Health Centre , 6 Fu Tung Street, Tung Chung, New Territories"}},{"type":"Feature","geometry":{"type":"Point","coordinates":[113.97672832293362,22.39114326426005]},"properties":{"Name":"屯門空氣質素監測站","Name_tc":"屯門空氣質素監測站","Name_en":"Tuen Mun Air Quality Monitoring Station","Type_tc":"一般監測站","Type_en":"GENERAL MONITORING STATION","Address_tc":"新界屯門屯喜路1號屯門公共圖書館","Address_en":"Tuen Mun Public Library, 1 Tuen Hi Road, Tuen Mun, N.T."}},{"type":"Feature","geometry":{"type":"Point","coordinates":[114.25956136517938,22.317642407998143]},"properties":{"Name":"將軍澳空氣質素監測站","Name_tc":"將軍澳空氣質素監測站","Name_en":"Tseung Kwan O Air Quality Monitoring Station","Type_tc":"一般監測站","Type_en":"GENERAL MONITORING STATION","Address_tc":"西貢將軍澳運隆路9號將軍澳體育館","Address_en":"Tseung Kwan O Sports Centre, 9 Wan Lung Road, Tseung Kwan O, Sai Kung"}},{"type":"Feature","geometry":{"type":"Point","coordinates":[114.23117417075346,22.309625396428988]},"properties":{"Name":"觀塘空氣質素監測站","Name_tc":"觀塘空氣質素監測站","Name_en":"Kwun Tong Air Quality Monitoring Station","Type_tc":"一般監測站","Type_en":"GENERAL MONITORING STATION","Address_tc":"觀塘警署九龍觀塘鯉魚門道九號","Address_en":"Kwun Tong Police Station, 9 Lei Yue Mun Road, Kwun Tong, Kowloon"}},{"type":"Feature","geometry":{"type":"Point","coordinates":[114.12824408579202,22.496697524193664]},"properties":{"Name":"北區空氣質素監測站","Name_tc":"北區空氣質素監測站","Name_en":"North Air Quality Monitoring Station","Type_tc":"一般監測站","Type_en":"GENERAL MONITORING STATION","Address_tc":"新界上水百和路19號","Address_en":"19 Pak Wo Road, Sheung Shui, New Territories."}},{"type":"Feature","geometry":{"type":"Point","coordinates":[114.16014010261138,22.24746120693035]},"properties":{"Name":"南區空氣質素監測站","Name_tc":"南區空氣質素監測站","Name_en":"Southern Air Quality Monitoring Station","Type_tc":"一般監測站","Type_en":"GENERAL MONITORING STATION","Address_tc":"香港香港仔海傍道1號","Address_en":"No.1 Aberdeen Praya Road, Hong Kong."}}]}