{"type":"FeatureCollection","_comment":"Hong Kong key facilities from CSDI (official HK government open data). Generated by scripts/build_facilities.py - do not hand-edit. k = cargo_area | approach | oil. Berth vacancy is NOT included: see that script.","features":[{"type":"Feature","geometry":{"type":"Point","coordinates":[113.92359972404924,22.368799682413528]},"properties":{"Name_tc":"貯油裝置牌照列表","Name_en":"List of Oil Storage Installation Licence","Address_tc":"屯門踏石角龍耀街5號","Address_en":"No. 5, Lung Yiu Street, Tap Shek Kok, Tuen Mun, New Territories"}},{"type":"Feature","geometry":{"type":"Point","coordinates":[113.92310013432873,22.370699814854365]},"properties":{"Name_tc":"貯油裝置牌照列表","Name_en":"List of Oil Storage Installation Licence","Address_tc":"屯門踏石角龍耀街7號","Address_en":"No.7 Lung Yiu Street, Tap Shek Kok, Tuen Mun, New Territories"}},{"type":"Feature","geometry":{"type":"Point","coordinates":[113.91859978433801,22.376500190839074]},"properties":{"Name_tc":"貯油裝置牌照列表","Name_en":"List of Oil Storage Installation Licence","Address_tc":"屯門龍耀街9號青山發電廠","Address_en":"Castle Peak Power Station, 9 Lung Yiu Street, Tuen Mun, New Territories"}},{"type":"Feature","geometry":{"type":"Point","coordinates":[114.10709971571379,22.33189968367059]},"properties":{"Name_tc":"貯油裝置牌照列表","Name_en":"List of Oil Storage Installation Licence","Address_tc":"新界青衣島青衣路40-50號","Address_en":"40-50 Tsing Yi Road, Tsing Yi Island, New Territories"}},{"type":"Feature","geometry":{"type":"Point","coordinates":[114.10619964855383,22.2202995818426]},"properties":{"Name_tc":"貯油裝置牌照列表","Name_en":"List of Oil Storage Installation Licence","Address_tc":"南丫島波羅咀南丫發電廠","Address_en":"Lamma Power Station, Po Lo Tsui, Lamma Island"}},{"type":"Feature","geometry":{"type":"Point","coordinates":[114.09110039757583,22.340700426467226]},"properties":{"Name_tc":"貯油裝置牌照列表","Name_en":"List of Oil Storage Installation Licence","Address_tc":"新界青衣島茜草灣路T.Y.T.L. 48 R.P.","Address_en":"T.Y.T.L. 48R.P., Sai Tso Wan Road, Tsing Yi Island, New Territories"}},{"type":"Feature","geometry":{"type":"Point","coordinates":[114.19230011067367,22.31989965326414]},"properties":{"Name_tc":"貯油裝置牌照列表","Name_en":"List of Oil Storage Installation Licence","Address_tc":"馬頭角土瓜灣道100號","Address_en":"100 To Kwa Wan Road, Ma Tau Kok, Kowloon"}},{"type":"Feature","geometry":{"type":"Point","coordinates":[113.9217000134928,22.37870041459505]},"properties":{"Name_tc":"貯油裝置牌照列表","Name_en":"List of Oil Storage Installation Licence","Address_tc":"屯門龍耀街9號青山發電廠","Address_en":"Castle Peak Power Station, 9 Lung Yiu Street, Tuen Mun, New Territories"}},{"type":"Feature","geometry":{"type":"Point","coordinates":[114.10810043850547,22.218800396461802]},"properties":{"Name_tc":"貯油裝置牌照列表","Name_en":"List of Oil Storage Installation Licence","Address_tc":"南丫島波羅咀南丫發電廠","Address_en":"Lamma Power Station, Po Lo Tsui, Lamma Island"}},{"type":"Feature","geometry":{"type":"Point","coordinates":[114.18539957762758,22.453900430065744]},"properties":{"Name_tc":"貯油裝置牌照列表","Name_en":"List of Oil Storage Installation Licence","Address_tc":"大埔工業邨大發街17-19號","Address_en":"17-19 Dai Fat Street, Tai Po Industrial Estate, Tai Po, New Territories"}},{"type":"Feature","geometry":{"type":"Point","coordinates":[114.24280028481735,22.27409994514168]},"properties":{"Name_tc":"貯油裝置牌照列表","Name_en":"List of Oil Storage Installation Licence","Address_tc":"柴灣創富道5號","Address_en":"5 Chong Fu Road, Chai Wan, Hong Kong"}},{"type":"Feature","geometry":{"type":"Point","coordinates":[114.10250010969409,22.329200206277104]},"properties":{"Name_tc":"貯油裝置牌照列表","Name_en":"List of Oil Storage Installation Licence","Address_tc":"新界青衣島青衣路","Address_en":"Tsing Yi Road, Tsing Yi Island, New Territories"}},{"type":"Feature","geometry":{"type":"Point","coordinates":[114.02629992389613,22.46380002358918]},"properties":{"Name_tc":"貯油裝置牌照列表","Name_en":"List of Oil Storage Installation Licence","Address_tc":"元朗工業邨宏樂街12號","Address_en":"12 Wang Lok Street, Yuen Long Industrial Estate, New Territories"}},{"type":"Feature","geometry":{"type":"Point","coordinates":[114.04130002706924,22.319899737569237]},"properties":{"Name_tc":"貯油裝置牌照列表","Name_en":"List of Oil Storage Installation Licence","Address_tc":"大嶼山竹篙灣榮欣路竹篙灣發電廠","Address_en":"Penny's Bay Power Station, Wing Yan Road, Penny's Bay, Lantau Island"}},{"type":"Feature","geometry":{"type":"Point","coordinates":[114.08790010509844,22.344899718160516]},"properties":{"Name_tc":"貯油裝置牌照列表","Name_en":"List of Oil Storage Installation Licence","Address_tc":"新界青衣島茜草灣路蜆殼公司青衣油庫","Address_en":"Shell Tsing Yi Installation Oil Terminals , Sai Tso Wan Road, Tsing Yi Island, New Territories"}},{"type":"Feature","geometry":{"type":"Point","coordinates":[113.93119994097644,22.294100090844196]},"properties":{"Name_tc":"貯油裝置牌照列表","Name_en":"List of Oil Storage Installation Licence","Address_tc":"大嶼山赤鱲角觀景路3號機場航煤油庫","Address_en":"Aviation Fuel Tank Farm, 3 Scenic Road, Hong Kong International Airport, Chek Lap Kok, Lantau Island"}},{"type":"Feature","geometry":{"type":"Point","coordinates":[114.18370037567458,22.45399984614357]},"properties":{"Name_tc":"貯油裝置牌照列表","Name_en":"List of Oil Storage Installation Licence","Address_tc":"大埔工業邨大發街17-19號","Address_en":"17-19 Dai Fat Street, Tai Po Industrial Estate, Tai Po, New Territories"}},{"type":"Feature","geometry":{"type":"Point","coordinates":[114.0023997841445,22.364099552449552]},"properties":{"Name_tc":"貯油裝置牌照列表","Name_en":"List of Oil Storage Installation Licence","Address_tc":"屯門樂安排青山公路大欖段","Address_en":"17 MS Castle Peak Road, Lok On Pai, Tuen Mun, New Territories"}},{"type":"Feature","geometry":{"type":"Point","coordinates":[113.90739963849103,22.412200024221686]},"properties":{"Name_tc":"貯油裝置牌照列表","Name_en":"List of Oil Storage Installation Licence","Address_tc":"屯門龍鼓灘湧浪路龍鼓灘發電廠","Address_en":"Black Point Power Station, Yung Long Road, Lung Kwu Tan, Tuen Mun, New Territories"}},{"type":"Feature","geometry":{"type":"Point","coordinates":[114.10709976238323,22.327900040806224]},"properties":{"Name_tc":"貯油裝置牌照列表","Name_en":"List of Oil Storage Installation Licence","Address_tc":"青衣青衣路53-67號","Address_en":"No. 53-67 Tsing Yi Road, Tsing Yi Island, New Territories"}},{"type":"Feature","geometry":{"type":"Point","coordinates":[114.09459978405127,22.32770002411104]},"properties":{"Name_tc":"貯油裝置牌照列表","Name_en":"List of Oil Storage Installation Licence","Address_tc":"青衣青強街19號","Address_en":"19, Tsing Keung Street, Tsing Yi Island, New Territories"}},{"type":"Feature","geometry":{"type":"Point","coordinates":[113.9273996934449,22.368400114455216]},"properties":{"Name_tc":"貯油裝置牌照列表","Name_en":"List of Oil Storage Installation Licence","Address_tc":"屯門踏石角龍康街9號","Address_en":"9 Lung Hong Street, Tap Shek Kok, Tuen Mun, New Territories"}},{"type":"Feature","geometry":{"type":"Point","coordinates":[114.1064004057567,22.214500151867753]},"properties":{"Name_tc":"貯油裝置牌照列表","Name_en":"List of Oil Storage Installation Licence","Address_tc":"南丫島波羅咀南丫發電廠擴建部分","Address_en":"Lamma Power Station Extension, Po Lo Tsui, Lamma Island"}}]}